OBJECT_NAME,OBJECT_ID,EPOCH,MEAN_MOTION,ECCENTRICITY,INCLINATION,RA_OF_ASC_NODE,ARG_OF_PERICENTER,MEAN_ANOMALY,EPHEMERIS_TYPE,CLASSIFICATION_TYPE,NORAD_CAT_ID,ELEMENT_SET_NO,REV_AT_EPOCH,BSTAR,MEAN_MOTION_DOT,MEAN_MOTION_DDOT
ASNARO-2,2018-007A,2026-06-15T17:45:38.764800,15.22436169,.0001715,97.3966,173.6900,90.4371,269.7062,0,U,43152,999,46719,.32773418E-3,.7512E-4,0
JILIN-1 07,2018-008E,2026-06-15T23:37:44.892768,15.34706082,.00099512,97.1763,186.9451,68.8526,291.3780,0,U,43159,999,46481,.23164917E-3,.7727E-4,0
JILIN-1 08,2018-008F,2026-06-15T23:36:56.668608,15.33702422,.00080469,97.1797,186.2623,83.3857,276.8301,0,U,43160,999,46476,.17437396E-3,.5611E-4,0
S-NET D,2018-014G,2026-06-15T19:29:58.780896,15.16662220,.00090687,97.5368,71.6120,34.6040,325.5782,0,U,43186,999,45855,.238841E-3,.4611E-4,0
S-NET B,2018-014H,2026-06-15T16:36:25.071840,15.16631190,.00095938,97.5375,71.4791,30.0139,330.1642,0,U,43187,999,45853,.23898389E-3,.461E-4,0
S-NET A,2018-014J,2026-06-15T16:18:21.834432,15.16669188,.00094966,97.5384,71.6748,30.7169,329.4618,0,U,43188,999,45853,.2443329E-3,.472E-4,0
S-NET C,2018-014K,2026-06-15T16:41:59.283456,15.16623430,.00106309,97.5400,71.7655,22.5845,337.5854,0,U,43189,999,45708,.23990353E-3,.4628E-4,0
PAZ,2018-020A,2026-06-15T22:06:47.397024,15.19149050,.00016698,97.4453,174.3252,85.5046,274.6379,0,U,43215,999,46081,.80345978E-4,.162E-4,0
GOES 17,2018-022A,2026-06-15T10:55:30.285696,1.00269922,.00003992,0.9331,85.7405,34.0768,218.2957,0,U,43226,999,3040,0,-.18E-5,0
LKW-4,2018-025A,2026-06-15T11:28:15.985920,15.62152954,.00018408,97.6336,337.2173,299.1561,60.9512,0,U,43236,999,45976,.3836577E-3,.3362E-3,0
ZHUHAI-1 OVS-02,2018-040B,2026-06-15T23:38:08.257920,15.25012272,.00016412,97.0381,184.2858,243.5465,116.5606,0,U,43440,999,45253,.2588955E-3,.6397E-4,0
ZHUHAI-1 OHS-02,2018-040C,2026-06-15T23:17:37.934016,15.25866951,.00079265,97.0365,191.2107,224.9923,135.0675,0,U,43441,999,11409,.2618302E-3,.6644E-4,0
GAOFEN-6,2018-048A,2026-06-15T20:26:00.300768,14.76597001,.00116931,97.8709,229.6314,171.3993,188.7420,0,U,43484,999,43319,.5061483E-4,.304E-5,0
LUOJIA-1 01,2018-048B,2026-06-15T23:07:03.554976,14.87279638,.00102085,97.8109,245.1698,121.3424,238.8792,0,U,43485,999,43403,.17851404E-3,.1557E-4,0
PAKTES 1A,2018-056A,2026-06-15T22:28:53.831424,14.99104071,.00221481,98.1299,323.3700,109.9611,250.3999,0,U,43529,999,43173,.15662359E-3,.1846E-4,0
PRSS-1,2018-056B,2026-06-15T23:23:19.834368,14.81987323,.0001676,97.7827,234.8776,74.1800,285.9598,0,U,43530,999,42825,.8236658E-4,.602E-5,0
HAIYANG-1C,2018-068A,2026-06-15T23:44:29.884128,14.34177952,.00120987,98.5198,239.3144,97.4487,262.8073,0,U,43609,999,40691,-.9270781E-5,-.69E-6,0
SSTL S1-4,2018-071A,2026-06-15T22:49:57.268992,14.96180591,.00014055,97.5042,38.6186,98.8796,261.2586,0,U,43618,999,42275,.25781041E-4,.236E-5,0
HAIYANG-2B,2018-081A,2026-06-16T00:03:26.150400,13.79306263,.00004481,99.3277,175.7763,4.3239,355.7917,0,U,43655,999,38476,-.16695439E-3,-.215E-5,0
CFOSAT,2018-083A,2026-06-15T23:19:39.955008,15.16368015,.00024438,97.3602,171.5386,91.5799,268.5714,0,U,43662,999,42225,.15403457E-3,.2924E-4,0
TEN-KOH,2018-084G,2026-06-15T19:00:41.115456,15.02939123,.00114348,98.0773,359.0971,118.1623,242.0758,0,U,43677,999,41595,.14031416E-3,.182E-4,0
DIWATA-2B,2018-084H,2026-06-15T21:40:02.319168,15.00448355,.0012426,98.1175,3.0557,174.2466,185.8901,0,U,43678,999,41602,.2062424E-3,.2533E-4,0
STARS-AO,2018-084J,2026-06-15T13:21:23.098176,15.17037427,.00027955,98.0498,20.4275,140.6117,219.5319,0,U,43679,999,41722,.26222195E-3,.5112E-4,0
AUTCUBE 2,2018-084K,2026-06-15T20:07:58.601280,15.10084513,.0010119,98.0708,12.9421,53.7132,306.5029,0,U,43681,999,41672,.19853852E-3,.3165E-4,0
METOP-C,2018-087A,2026-06-15T20:54:54.251136,14.21511760,.00017179,98.6645,226.4991,131.2129,228.9197,0,U,43689,999,39464,.55580826E-4,.78E-6,0
ES'HAIL 2,2018-090A,2026-06-15T20:34:38.920224,1.00269965,.00015905,0.0181,12.1606,112.3264,114.0956,0,U,43700,999,2766,0,.145E-5,0
MOHAMMED VI-B,2018-095A,2026-06-15T22:58:51.799872,14.77115364,.00012866,97.9563,239.2996,96.3754,263.7603,0,U,43717,999,40800,.66011819E-4,.416E-5,0
HYSIS,2018-096A,2026-06-15T23:50:27.316608,14.78692377,.00019202,97.9846,233.7508,107.0434,253.0987,0,U,43719,999,40724,.71985616E-4,.476E-5,0
COSMOS 2530 (RODNIK-S 16),2018-097A,2026-06-15T22:16:00.701760,12.42880996,.00202385,82.5146,223.0620,42.3057,317.9580,0,U,43751,999,34213,.13207348E-3,.28E-6,0
