ASNARO-2                
1 43152U 18007A   26166.74003200  .00007512  00000+0  32773-3 0  9997
2 43152  97.3966 173.6900 0001715  90.4371 269.7062 15.22436169467199
JILIN-1 07              
1 43159U 18008E   26166.98454737  .00007727  00000+0  23165-3 0  9999
2 43159  97.1763 186.9451 0009951  68.8526 291.3780 15.34706082464819
JILIN-1 08              
1 43160U 18008F   26166.98398922  .00005611  00000+0  17437-3 0  9999
2 43160  97.1797 186.2623 0008046  83.3857 276.8301 15.33702422464769
S-NET D                 
1 43186U 18014G   26166.81248589  .00004611  00000+0  23884-3 0  9991
2 43186  97.5368  71.6120 0009068  34.6040 325.5782 15.16662220458559
S-NET B                 
1 43187U 18014H   26166.69195685  .00004610  00000+0  23898-3 0  9990
2 43187  97.5375  71.4791 0009593  30.0139 330.1642 15.16631190458539
S-NET A                 
1 43188U 18014J   26166.67941938  .00004720  00000+0  24433-3 0  9997
2 43188  97.5384  71.6748 0009496  30.7169 329.4618 15.16669188458538
S-NET C                 
1 43189U 18014K   26166.69582504  .00004628  00000+0  23990-3 0  9994
2 43189  97.5400  71.7655 0010630  22.5845 337.5854 15.16623430457089
PAZ                     
1 43215U 18020A   26166.92138191  .00001620  00000+0  80346-4 0  9994
2 43215  97.4453 174.3252 0001669  85.5046 274.6379 15.19149050460815
GOES 17                 
1 43226U 18022A   26166.45521164 -.00000180  00000+0  00000+0 0  9997
2 43226   0.9331  85.7405 0000399  34.0768 218.2957  1.00269922 30405
LKW-4                   
1 43236U 18025A   26166.47796280  .00033620  00000+0  38366-3 0  9990
2 43236  97.6336 337.2173 0001840 299.1561  60.9512 15.62152954459760
ZHUHAI-1 OVS-02         
1 43440U 18040B   26166.98481780  .00006397  00000+0  25890-3 0  9995
2 43440  97.0381 184.2858 0001641 243.5465 116.5606 15.25012272452533
ZHUHAI-1 OHS-02         
1 43441U 18040C   26166.97057794  .00006644  00000+0  26183-3 0  9990
2 43441  97.0365 191.2107 0007926 224.9923 135.0675 15.25866951114094
GAOFEN-6                
1 43484U 18048A   26166.85139237  .00000304  00000+0  50615-4 0  9990
2 43484  97.8709 229.6314 0011693 171.3993 188.7420 14.76597001433195
LUOJIA-1 01             
1 43485U 18048B   26166.96323559  .00001557  00000+0  17851-3 0  9990
2 43485  97.8109 245.1698 0010208 121.3424 238.8792 14.87279638434031
PAKTES 1A               
1 43529U 18056A   26166.93673416  .00001846  00000+0  15662-3 0  9994
2 43529  98.1299 323.3700 0022148 109.9611 250.3999 14.99104071431736
PRSS-1                  
1 43530U 18056B   26166.97453512  .00000602  00000+0  82367-4 0  9999
2 43530  97.7827 234.8776 0001676  74.1800 285.9598 14.81987323428257
HAIYANG-1C              
1 43609U 18068A   26166.98923477 -.00000069  00000+0 -92708-5 0  9992
2 43609  98.5198 239.3144 0012098  97.4487 262.8073 14.34177952406910
SSTL S1-4               
1 43618U 18071A   26166.95135728  .00000236  00000+0  25781-4 0  9997
2 43618  97.5042  38.6186 0001405  98.8796 261.2586 14.96180591422754
HAIYANG-2B              
1 43655U 18081A   26167.00238600 -.00000215  00000+0 -16695-3 0  9991
2 43655  99.3277 175.7763 0000448   4.3239 355.7917 13.79306263384760
CFOSAT                  
1 43662U 18083A   26166.97199022  .00002924  00000+0  15403-3 0  9993
2 43662  97.3602 171.5386 0002443  91.5799 268.5714 15.16368015422258
TEN-KOH                 
1 43677U 18084G   26166.79214254  .00001820  00000+0  14031-3 0  9995
2 43677  98.0773 359.0971 0011434 118.1623 242.0758 15.02939123415959
DIWATA-2B               
1 43678U 18084H   26166.90280462  .00002533  00000+0  20624-3 0  9990
2 43678  98.1175   3.0557 0012426 174.2466 185.8901 15.00448355416026
STARS-AO                
1 43679U 18084J   26166.55651734  .00005112  00000+0  26222-3 0  9992
2 43679  98.0498  20.4275 0002795 140.6117 219.5319 15.17037427417225
AUTCUBE 2               
1 43681U 18084K   26166.83887270  .00003165  00000+0  19854-3 0  9991
2 43681  98.0708  12.9421 0010119  53.7132 306.5029 15.10084513416721
METOP-C                 
1 43689U 18087A   26166.87146124  .00000078  00000+0  55581-4 0  9990
2 43689  98.6645 226.4991 0001717 131.2129 228.9197 14.21511760394640
ES'HAIL 2               
1 43700U 18090A   26166.85739491  .00000145  00000+0  00000+0 0  9997
2 43700   0.0181  12.1606 0001590 112.3264 114.0956  1.00269965 27661
MOHAMMED VI-B           
1 43717U 18095A   26166.95754398  .00000416  00000+0  66012-4 0  9995
2 43717  97.9563 239.2996 0001286  96.3754 263.7603 14.77115364408002
HYSIS                   
1 43719U 18096A   26166.99337172  .00000476  00000+0  71986-4 0  9991
2 43719  97.9846 233.7508 0001920 107.0434 253.0987 14.78692377407243
COSMOS 2530 (RODNIK-S *)
1 43751U 18097A   26166.92778590  .00000028  00000+0  13207-3 0  9998
2 43751  82.5146 223.0620 0020238  42.3057 317.9580 12.42880996342134
